{
"type": "FeatureCollection",
"name": "nz_coastal_regions",
"crs": { "type": "name", "properties": { "name": "urn:ogc:def:crs:OGC:1.3:CRS84" } },
"features": [
{ "type": "Feature", "properties": { "fid": 1, "region_id": 1, "region_code": "NNI", "region_name": "North North Island" }, "geometry": { "type": "Polygon", "coordinates": [ [ [ 181.080827283337925, -38.972553302407327 ], [ 182.113422290201157, -37.270166939740903 ], [ 171.703748302093345, -32.163007851741618 ], [ 169.247846664148312, -33.502590563347987 ], [ 172.903791147907384, -38.777197490298065 ], [ 181.080827283337925, -38.972553302407327 ] ] ] } },
{ "type": "Feature", "properties": { "fid": 2, "region_id": 3, "region_code": "ENI", "region_name": "East North Island" }, "geometry": { "type": "Polygon", "coordinates": [ [ [ 181.080827283337925, -38.973425426568539 ], [ 177.185048655248238, -42.862227061368557 ], [ 175.18483189153136, -42.343313185453333 ], [ 175.39588593854225, -38.838246181582221 ], [ 175.395013814381059, -38.838246181582221 ], [ 181.080827283337925, -38.973425426568539 ] ] ] } },
{ "type": "Feature", "properties": { "fid": 3, "region_id": 2, "region_code": "WNI", "region_name": "West North Island" }, "geometry": { "type": "Polygon", "coordinates": [ [ [ 172.903743453618006, -38.777194083562023 ], [ 171.841741510190758, -39.668886530633884 ], [ 174.206942235378222, -40.296815926701356 ], [ 174.359345932548763, -40.385118498023353 ], [ 174.564077079391609, -40.801121722918055 ], [ 174.448956690112567, -41.523240528395647 ], [ 175.184811451129121, -42.343473302008775 ], [ 175.395572518930265, -38.839659976608353 ], [ 175.395572518930265, -38.837043604124737 ], [ 172.903743453618006, -38.777194083562023 ] ] ] } },
{ "type": "Feature", "properties": { "fid": 4, "region_id": 4, "region_code": "NSI", "region_name": "North South Island" }, "geometry": { "type": "Polygon", "coordinates": [ [ [ 177.184312800501431, -42.862210027705416 ], [ 175.416299094698985, -44.176937200721682 ], [ 166.039220113424761, -43.92576544229469 ], [ 171.841680188960709, -39.668273318333071 ], [ 174.205899774466815, -40.296202714400543 ], [ 174.359284611318742, -40.38548642540389 ], [ 174.562707571919816, -40.79952737093587 ], [ 174.449549462003489, -41.524262548897084 ], [ 175.185404223020072, -42.343841229389319 ], [ 175.185404223020072, -42.343841229389319 ], [ 177.184312800501431, -42.862210027705416 ] ] ] } },
{ "type": "Feature", "properties": { "fid": 5, "region_id": 5, "region_code": "WSI", "region_name": "West South Island" }, "geometry": { "type": "Polygon", "coordinates": [ [ [ 175.416299094698985, -44.177264247282146 ], [ 170.87035190441884, -53.377738085912398 ], [ 167.176033957555234, -53.607978864470475 ], [ 164.206451188652807, -52.864929079123939 ], [ 165.35765508144317, -49.390386420883942 ], [ 169.979477073748114, -44.032055574441522 ], [ 169.979477073748114, -44.032055574441522 ], [ 175.416299094698985, -44.177264247282146 ] ] ] } },
{ "type": "Feature", "properties": { "fid": 6, "region_id": 6, "region_code": "ESI", "region_name": "East South Island" }, "geometry": { "type": "Polygon", "coordinates": [ [ [ 166.03930187506478, -43.925765442294654 ], [ 159.995849365295811, -49.458289462997719 ], [ 164.206900877673291, -52.864806436663741 ], [ 164.206900877673291, -52.864806436663741 ], [ 165.354221092558419, -49.400647506718116 ], [ 169.979313550467907, -44.031360600500562 ], [ 169.979313550467907, -44.031360600500562 ], [ 166.03930187506478, -43.925765442294654 ] ] ] } }
]
}
